[{"OBJECT_NAME":"TRANSPORTER-10 OBJECT AD","OBJECT_ID":"2024-043AD","EPOCH":"2026-03-09T20:38:52.416960","MEAN_MOTION":15.34189901,"ECCENTRICITY":0.00089841,"INCLINATION":97.547,"RA_OF_ASC_NODE":207.3753,"ARG_OF_PERICENTER":221.4908,"MEAN_ANOMALY":138.5653,"EPHEMERIS_TYPE":0,"CLASSIFICATION_TYPE":"U","NORAD_CAT_ID":59125,"ELEMENT_SET_NO":999,"REV_AT_EPOCH":11202,"BSTAR":0.00036310552,"MEAN_MOTION_DOT":0.00011954,"MEAN_MOTION_DDOT":0},{"OBJECT_NAME":"STARLINK-33626","OBJECT_ID":"2025-063G","EPOCH":"2026-03-09T22:53:47.397984","MEAN_MOTION":15.30183502,"ECCENTRICITY":0.00016811,"INCLINATION":53.1608,"RA_OF_ASC_NODE":48.8378,"ARG_OF_PERICENTER":109.3985,"MEAN_ANOMALY":250.7197,"EPHEMERIS_TYPE":0,"CLASSIFICATION_TYPE":"U","NORAD_CAT_ID":63369,"ELEMENT_SET_NO":999,"REV_AT_EPOCH":5478,"BSTAR":0.00055099422,"MEAN_MOTION_DOT":0.00015987,"MEAN_MOTION_DDOT":0}]
